[{"OBJECT_NAME":"COSMOS 1953","OBJECT_ID":"1988-050A","EPOCH":"2026-03-02T18:02:10.391424","MEAN_MOTION":15.28371852,"ECCENTRICITY":0.00121717,"INCLINATION":82.5116,"RA_OF_ASC_NODE":165.2225,"ARG_OF_PERICENTER":145.0303,"MEAN_ANOMALY":215.1738,"EPHEMERIS_TYPE":0,"CLASSIFICATION_TYPE":"U","NORAD_CAT_ID":19210,"ELEMENT_SET_NO":999,"REV_AT_EPOCH":3672,"BSTAR":0.00038458032,"MEAN_MOTION_DOT":0.0001068,"MEAN_MOTION_DDOT":0},{"OBJECT_NAME":"SL-8 R/B","OBJECT_ID":"1988-053B","EPOCH":"2026-03-02T15:41:55.006368","MEAN_MOTION":14.3891076,"ECCENTRICITY":0.0021257,"INCLINATION":74.0469,"RA_OF_ASC_NODE":125.4351,"ARG_OF_PERICENTER":305.7809,"MEAN_ANOMALY":216.9762,"EPHEMERIS_TYPE":0,"CLASSIFICATION_TYPE":"U","NORAD_CAT_ID":19257,"ELEMENT_SET_NO":999,"REV_AT_EPOCH":97558,"BSTAR":0.00010705,"MEAN_MOTION_DOT":3.04e-6,"MEAN_MOTION_DDOT":0},{"OBJECT_NAME":"COSMOS 1975","OBJECT_ID":"1988-093A","EPOCH":"2026-03-02T15:39:13.353696","MEAN_MOTION":15.27939863,"ECCENTRICITY":0.00114842,"INCLINATION":82.5201,"RA_OF_ASC_NODE":124.749,"ARG_OF_PERICENTER":187.6591,"MEAN_ANOMALY":172.4475,"EPHEMERIS_TYPE":0,"CLASSIFICATION_TYPE":"U","NORAD_CAT_ID":19573,"ELEMENT_SET_NO":999,"REV_AT_EPOCH":1833,"BSTAR":0.0003366091,"MEAN_MOTION_DOT":9.226e-5,"MEAN_MOTION_DDOT":0},{"OBJECT_NAME":"SL-14 R/B","OBJECT_ID":"1988-093B","EPOCH":"2026-03-02T22:04:28.068384","MEAN_MOTION":14.85646384,"ECCENTRICITY":0.00221495,"INCLINATION":82.5292,"RA_OF_ASC_NODE":48.3996,"ARG_OF_PERICENTER":62.6477,"MEAN_ANOMALY":319.6679,"EPHEMERIS_TYPE":0,"CLASSIFICATION_TYPE":"U","NORAD_CAT_ID":19574,"ELEMENT_SET_NO":999,"REV_AT_EPOCH":1,"BSTAR":7.6634851e-5,"MEAN_MOTION_DOT":6.91e-6,"MEAN_MOTION_DDOT":0},{"OBJECT_NAME":"SL-16 R/B","OBJECT_ID":"1988-102B","EPOCH":"2026-03-02T16:48:13.515552","MEAN_MOTION":14.16149362,"ECCENTRICITY":0.00135195,"INCLINATION":71,"RA_OF_ASC_NODE":166.2026,"ARG_OF_PERICENTER":12.266,"MEAN_ANOMALY":347.879,"EPHEMERIS_TYPE":0,"CLASSIFICATION_TYPE":"U","NORAD_CAT_ID":19650,"ELEMENT_SET_NO":999,"REV_AT_EPOCH":92590,"BSTAR":-2.3192549e-5,"MEAN_MOTION_DOT":-9.4e-7,"MEAN_MOTION_DDOT":0},{"OBJECT_NAME":"INTERCOSMOS 24","OBJECT_ID":"1989-080A","EPOCH":"2026-03-02T13:47:19.288320","MEAN_MOTION":12.59544974,"ECCENTRICITY":0.1186853,"INCLINATION":82.6033,"RA_OF_ASC_NODE":109.0376,"ARG_OF_PERICENTER":309.3514,"MEAN_ANOMALY":40.8085,"EPHEMERIS_TYPE":0,"CLASSIFICATION_TYPE":"U","NORAD_CAT_ID":20261,"ELEMENT_SET_NO":999,"REV_AT_EPOCH":66590,"BSTAR":0.00023149,"MEAN_MOTION_DOT":7.8e-6,"MEAN_MOTION_DDOT":0},{"OBJECT_NAME":"SL-14 R/B","OBJECT_ID":"1989-080C","EPOCH":"2026-03-02T20:01:10.534080","MEAN_MOTION":12.50483069,"ECCENTRICITY":0.12303058,"INCLINATION":82.5971,"RA_OF_ASC_NODE":177.5858,"ARG_OF_PERICENTER":200.4157,"MEAN_ANOMALY":154.3371,"EPHEMERIS_TYPE":0,"CLASSIFICATION_TYPE":"U","NORAD_CAT_ID":20262,"ELEMENT_SET_NO":999,"REV_AT_EPOCH":65929,"BSTAR":0.00021457309,"MEAN_MOTION_DOT":7.21e-6,"MEAN_MOTION_DDOT":0},{"OBJECT_NAME":"DELTA 1 R/B","OBJECT_ID":"1989-089B","EPOCH":"2026-03-02T14:02:45.951648","MEAN_MOTION":14.50656335,"ECCENTRICITY":0.0070022,"INCLINATION":97.0711,"RA_OF_ASC_NODE":270.1538,"ARG_OF_PERICENTER":144.095,"MEAN_ANOMALY":216.4983,"EPHEMERIS_TYPE":0,"CLASSIFICATION_TYPE":"U","NORAD_CAT_ID":20323,"ELEMENT_SET_NO":999,"REV_AT_EPOCH":89470,"BSTAR":0.00011989,"MEAN_MOTION_DOT":4.51e-6,"MEAN_MOTION_DDOT":0},{"OBJECT_NAME":"ARIANE 40 R/B","OBJECT_ID":"1990-005H","EPOCH":"2026-03-02T17:24:36.750240","MEAN_MOTION":14.39864935,"ECCENTRICITY":0.0009427,"INCLINATION":98.3099,"RA_OF_ASC_NODE":122.594,"ARG_OF_PERICENTER":220.2494,"MEAN_ANOMALY":139.7998,"EPHEMERIS_TYPE":0,"CLASSIFICATION_TYPE":"U","NORAD_CAT_ID":20443,"ELEMENT_SET_NO":999,"REV_AT_EPOCH":89180,"BSTAR":0.00011569521,"MEAN_MOTION_DOT":3.21e-6,"MEAN_MOTION_DDOT":0},{"OBJECT_NAME":"DELTA 2 R/B(1)","OBJECT_ID":"1990-008B","EPOCH":"2026-03-02T10:37:30.180288","MEAN_MOTION":15.54850817,"ECCENTRICITY":0.00869822,"INCLINATION":35.6028,"RA_OF_ASC_NODE":222.3764,"ARG_OF_PERICENTER":191.5547,"MEAN_ANOMALY":168.319,"EPHEMERIS_TYPE":0,"CLASSIFICATION_TYPE":"U","NORAD_CAT_ID":20453,"ELEMENT_SET_NO":999,"REV_AT_EPOCH":92500,"BSTAR":0.0009052081,"MEAN_MOTION_DOT":0.00074557,"MEAN_MOTION_DDOT":0},{"OBJECT_NAME":"COSMOS 2058","OBJECT_ID":"1990-010A","EPOCH":"2026-03-02T23:03:39.041856","MEAN_MOTION":15.11247125,"ECCENTRICITY":0.00098718,"INCLINATION":82.4665,"RA_OF_ASC_NODE":54.057,"ARG_OF_PERICENTER":5.6195,"MEAN_ANOMALY":354.5144,"EPHEMERIS_TYPE":0,"CLASSIFICATION_TYPE":"U","NORAD_CAT_ID":20465,"ELEMENT_SET_NO":999,"REV_AT_EPOCH":94122,"BSTAR":0.00028703755,"MEAN_MOTION_DOT":4.858e-5,"MEAN_MOTION_DDOT":0},{"OBJECT_NAME":"SL-14 R/B","OBJECT_ID":"1990-010B","EPOCH":"2026-03-02T22:36:48.498336","MEAN_MOTION":14.83561864,"ECCENTRICITY":0.00189657,"INCLINATION":82.4992,"RA_OF_ASC_NODE":273.7285,"ARG_OF_PERICENTER":325.8784,"MEAN_ANOMALY":34.121,"EPHEMERIS_TYPE":0,"CLASSIFICATION_TYPE":"U","NORAD_CAT_ID":20466,"ELEMENT_SET_NO":999,"REV_AT_EPOCH":92748,"BSTAR":5.4211437e-5,"MEAN_MOTION_DOT":4.71e-6,"MEAN_MOTION_DDOT":0},{"OBJECT_NAME":"SL-14 R/B","OBJECT_ID":"1990-018B","EPOCH":"2026-03-02T22:53:08.950848","MEAN_MOTION":14.82135873,"ECCENTRICITY":0.00175709,"INCLINATION":82.5191,"RA_OF_ASC_NODE":229.3863,"ARG_OF_PERICENTER":112.4856,"MEAN_ANOMALY":247.8221,"EPHEMERIS_TYPE":0,"CLASSIFICATION_TYPE":"U","NORAD_CAT_ID":20511,"ELEMENT_SET_NO":999,"REV_AT_EPOCH":92158,"BSTAR":7.5662433e-5,"MEAN_MOTION_DOT":6.27e-6,"MEAN_MOTION_DDOT":0},{"OBJECT_NAME":"HST","OBJECT_ID":"1990-037B","EPOCH":"2026-03-02T08:57:46.083456","MEAN_MOTION":15.29345912,"ECCENTRICITY":0.00016383,"INCLINATION":28.47,"RA_OF_ASC_NODE":89.9045,"ARG_OF_PERICENTER":52.0942,"MEAN_ANOMALY":307.9801,"EPHEMERIS_TYPE":0,"CLASSIFICATION_TYPE":"U","NORAD_CAT_ID":20580,"ELEMENT_SET_NO":999,"REV_AT_EPOCH":77219,"BSTAR":0.0003034347,"MEAN_MOTION_DOT":9.122e-5,"MEAN_MOTION_DDOT":0},{"OBJECT_NAME":"SL-16 R/B","OBJECT_ID":"1990-046B","EPOCH":"2026-03-02T21:51:31.559616","MEAN_MOTION":14.15014759,"ECCENTRICITY":0.00161178,"INCLINATION":71.0004,"RA_OF_ASC_NODE":312.1516,"ARG_OF_PERICENTER":308.7258,"MEAN_ANOMALY":51.2423,"EPHEMERIS_TYPE":0,"CLASSIFICATION_TYPE":"U","NORAD_CAT_ID":20625,"ELEMENT_SET_NO":999,"REV_AT_EPOCH":84743,"BSTAR":-6.2599843e-5,"MEAN_MOTION_DOT":-1.69e-6,"MEAN_MOTION_DDOT":0},{"OBJECT_NAME":"COSMOS 2084","OBJECT_ID":"1990-055A","EPOCH":"2026-03-02T22:44:30.783264","MEAN_MOTION":15.05599794,"ECCENTRICITY":0.00181572,"INCLINATION":62.7925,"RA_OF_ASC_NODE":358.5709,"ARG_OF_PERICENTER":188.5153,"MEAN_ANOMALY":171.5643,"EPHEMERIS_TYPE":0,"CLASSIFICATION_TYPE":"U","NORAD_CAT_ID":20663,"ELEMENT_SET_NO":999,"REV_AT_EPOCH":93530,"BSTAR":0.0002464751,"MEAN_MOTION_DOT":3.382e-5,"MEAN_MOTION_DDOT":0},{"OBJECT_NAME":"SL-6 R/B(2)","OBJECT_ID":"1990-055D","EPOCH":"2026-03-02T22:06:16.043328","MEAN_MOTION":15.03555592,"ECCENTRICITY":0.0023706,"INCLINATION":62.782,"RA_OF_ASC_NODE":276.8694,"ARG_OF_PERICENTER":345.3552,"MEAN_ANOMALY":14.6858,"EPHEMERIS_TYPE":0,"CLASSIFICATION_TYPE":"U","NORAD_CAT_ID":20666,"ELEMENT_SET_NO":999,"REV_AT_EPOCH":93717,"BSTAR":0.0001842519,"MEAN_MOTION_DOT":2.342e-5,"MEAN_MOTION_DDOT":0}]
